[{"OBJECT_NAME":"OBJECT H","OBJECT_ID":"2025-155H","EPOCH":"2026-03-09T22:09:58.611456","MEAN_MOTION":15.27590961,"ECCENTRICITY":0.00081993,"INCLINATION":97.4482,"RA_OF_ASC_NODE":37.3122,"ARG_OF_PERICENTER":152.0629,"MEAN_ANOMALY":208.1051,"EPHEMERIS_TYPE":0,"CLASSIFICATION_TYPE":"U","NORAD_CAT_ID":64883,"ELEMENT_SET_NO":999,"REV_AT_EPOCH":6559,"BSTAR":0.00050403256,"MEAN_MOTION_DOT":0.00013547,"MEAN_MOTION_DDOT":0},{"OBJECT_NAME":"STARLINK-36460","OBJECT_ID":"2026-005AE","EPOCH":"2026-03-09T12:09:58.375296","MEAN_MOTION":15.27585471,"ECCENTRICITY":7.19e-5,"INCLINATION":42.9953,"RA_OF_ASC_NODE":239.4247,"ARG_OF_PERICENTER":264.3929,"MEAN_ANOMALY":95.6841,"EPHEMERIS_TYPE":0,"CLASSIFICATION_TYPE":"U","NORAD_CAT_ID":67432,"ELEMENT_SET_NO":999,"REV_AT_EPOCH":865,"BSTAR":0.001372904,"MEAN_MOTION_DOT":0.00037717,"MEAN_MOTION_DDOT":0}]
